[
    {
        "Altitude(m)": 622200.0754109599,
        "Argument of Periapsis(deg)": 0.0,
        "Eccentricity": 0.0,
        "Inclination(deg)": 60.0,
        "Latitude(deg)": -52.16245048740779,
        "Longitude(deg)": 87.36078036714451,
        "Mean Anomaly(deg)": -65.45449999999998,
        "RAAN(deg)": 235.0,
        "Satellite Name": "Test1 1052",
        "Satellite Number": 1052,
        "Semi-Major Axis(m)": 6980739.136638005,
        "Time(s)": 0
    },
    {
        "Altitude(m)": 622058.2429578613,
        "Argument of Periapsis(deg)": 0.00010418945913296404,
        "Eccentricity": 0.0,
        "Inclination(deg)": 60.0,
        "Latitude(deg)": -51.79919985071666,
        "Longitude(deg)": 88.12883639935507,
        "Mean Anomaly(deg)": -64.83439385453813,
        "RAAN(deg)": 234.99957995086027,
        "Satellite Name": "Test1 1052",
        "Satellite Number": 1052,
        "Semi-Major Axis(m)": 6980739.136638005,
        "Time(s)": 10
    }
]